STARLINK-36925          
1 68042U 26041C   26069.50002314 -.01427149  00000+0 -55344-2 0  9993
2 68042  53.1587  58.1535 0000612  67.0703 355.0277 15.89253746  2506
STARLINK-36902          
1 68043U 26041D   26069.50002314 -.01422040  00000+0 -54252-2 0  9996
2 68043  53.1590  58.1421 0000692  79.1488 348.3837 15.89561553  2502
STARLINK-36966          
1 68044U 26041E   26069.50002314 -.01428483  00000+0 -53740-2 0  9995
2 68044  53.1588  58.1299 0000863  68.3437   4.9898 15.89845462  2503
STARLINK-36864          
1 68045U 26041F   26069.50002314 -.01427417  00000+0 -54118-2 0  9992
2 68045  53.1587  58.1358 0000809  76.8939 353.7823 15.89693102  2505
STARLINK-36321          
1 68046U 26041G   26069.50002314 -.01410855  00000+0 -52258-2 0  9994
2 68046  53.1588  58.1181 0000809  75.1830   3.9416 15.90111983  2509
STARLINK-36181          
1 68047U 26041H   26069.50002314 -.01413105  00000+0 -52711-2 0  9990
2 68047  53.1589  58.1244 0000893  68.8299   7.3790 15.89978852  2385
STARLINK-36318          
1 68048U 26041J   26069.41668981 -.01359715  00000+0 -49159-2 0  9997
2 68048  53.1591  58.5365 0000549  63.6878 260.7730 15.90480505  2497
STARLINK-36885          
1 68049U 26041K   26069.41668981 -.01562663  68142-3 -49249-2 0  9991
2 68049  53.1590  58.5240 0000781  69.3472 261.0772 15.90751600  2497
STARLINK-36945          
1 68050U 26041L   26069.41668981 -.01367846  00000+0 -49150-2 0  9995
2 68050  53.1589  58.5301 0000684  63.6142 263.8683 15.90613968  2493
STARLINK-35911          
1 68051U 26041M   26069.41668981 -.01549054  67136-3 -48518-2 0  9993
2 68051  53.1590  58.5179 0000560  64.9715 268.5221 15.90870779  2453
STARLINK-35808          
1 68052U 26041N   26069.41668981 -.01551373  67408-3 -48254-2 0  9990
2 68052  53.1586  58.5115 0000600  72.7448 263.5374 15.91006906  2452
STARLINK-36919          
1 68053U 26041P   26069.41668981 -.01551834  67527-3 -47954-2 0  9991
2 68053  53.1588  58.5056 0000604  69.9175 269.3320 15.91134211  2498
