CCSDS_OMM_VERS = 2.0
CREATION_DATE  = 
ORIGINATOR     = 

OBJECT_NAME    = STARLINK-36925
OBJECT_ID      = 2026-041C
CENTER_NAME    = EARTH
REF_FRAME      = TEME
TIME_SYSTEM    = UTC
MEAN_ELEMENT_THEORY = SGP/SGP4

EPOCH          = 2026-03-10T12:00:01.999296
MEAN_MOTION    = 15.89253746
ECCENTRICITY   = .0000612
INCLINATION    = 53.1587
RA_OF_ASC_NODE = 58.1535
ARG_OF_PERICENTER = 67.0703
MEAN_ANOMALY   = 355.0277

EPHEMERIS_TYPE = 0
CLASSIFICATION_TYPE = U
NORAD_CAT_ID   = 68042
ELEMENT_SET_NO = 999
REV_AT_EPOCH   = 250
BSTAR          = -.55344E-2
MEAN_MOTION_DOT = -.1427149E-1
MEAN_MOTION_DDOT = 0

CCSDS_OMM_VERS = 2.0
CREATION_DATE  = 
ORIGINATOR     = 

OBJECT_NAME    = STARLINK-36902
OBJECT_ID      = 2026-041D
CENTER_NAME    = EARTH
REF_FRAME      = TEME
TIME_SYSTEM    = UTC
MEAN_ELEMENT_THEORY = SGP/SGP4

EPOCH          = 2026-03-10T12:00:01.999296
MEAN_MOTION    = 15.89561553
ECCENTRICITY   = .0000692
INCLINATION    = 53.1590
RA_OF_ASC_NODE = 58.1421
ARG_OF_PERICENTER = 79.1488
MEAN_ANOMALY   = 348.3837

EPHEMERIS_TYPE = 0
CLASSIFICATION_TYPE = U
NORAD_CAT_ID   = 68043
ELEMENT_SET_NO = 999
REV_AT_EPOCH   = 250
BSTAR          = -.54252E-2
MEAN_MOTION_DOT = -.142204E-1
MEAN_MOTION_DDOT = 0

CCSDS_OMM_VERS = 2.0
CREATION_DATE  = 
ORIGINATOR     = 

OBJECT_NAME    = STARLINK-36966
OBJECT_ID      = 2026-041E
CENTER_NAME    = EARTH
REF_FRAME      = TEME
TIME_SYSTEM    = UTC
MEAN_ELEMENT_THEORY = SGP/SGP4

EPOCH          = 2026-03-10T12:00:01.999296
MEAN_MOTION    = 15.89845462
ECCENTRICITY   = .0000863
INCLINATION    = 53.1588
RA_OF_ASC_NODE = 58.1299
ARG_OF_PERICENTER = 68.3437
MEAN_ANOMALY   = 4.9898

EPHEMERIS_TYPE = 0
CLASSIFICATION_TYPE = U
NORAD_CAT_ID   = 68044
ELEMENT_SET_NO = 999
REV_AT_EPOCH   = 250
BSTAR          = -.5374E-2
MEAN_MOTION_DOT = -.1428483E-1
MEAN_MOTION_DDOT = 0

CCSDS_OMM_VERS = 2.0
CREATION_DATE  = 
ORIGINATOR     = 

OBJECT_NAME    = STARLINK-36864
OBJECT_ID      = 2026-041F
CENTER_NAME    = EARTH
REF_FRAME      = TEME
TIME_SYSTEM    = UTC
MEAN_ELEMENT_THEORY = SGP/SGP4

EPOCH          = 2026-03-10T12:00:01.999296
MEAN_MOTION    = 15.89693102
ECCENTRICITY   = .0000809
INCLINATION    = 53.1587
RA_OF_ASC_NODE = 58.1358
ARG_OF_PERICENTER = 76.8939
MEAN_ANOMALY   = 353.7823

EPHEMERIS_TYPE = 0
CLASSIFICATION_TYPE = U
NORAD_CAT_ID   = 68045
ELEMENT_SET_NO = 999
REV_AT_EPOCH   = 250
BSTAR          = -.54118E-2
MEAN_MOTION_DOT = -.1427417E-1
MEAN_MOTION_DDOT = 0

CCSDS_OMM_VERS = 2.0
CREATION_DATE  = 
ORIGINATOR     = 

OBJECT_NAME    = STARLINK-36321
OBJECT_ID      = 2026-041G
CENTER_NAME    = EARTH
REF_FRAME      = TEME
TIME_SYSTEM    = UTC
MEAN_ELEMENT_THEORY = SGP/SGP4

EPOCH          = 2026-03-10T12:00:01.999296
MEAN_MOTION    = 15.90111983
ECCENTRICITY   = .0000809
INCLINATION    = 53.1588
RA_OF_ASC_NODE = 58.1181
ARG_OF_PERICENTER = 75.1830
MEAN_ANOMALY   = 3.9416

EPHEMERIS_TYPE = 0
CLASSIFICATION_TYPE = U
NORAD_CAT_ID   = 68046
ELEMENT_SET_NO = 999
REV_AT_EPOCH   = 250
BSTAR          = -.52258E-2
MEAN_MOTION_DOT = -.1410855E-1
MEAN_MOTION_DDOT = 0

CCSDS_OMM_VERS = 2.0
CREATION_DATE  = 
ORIGINATOR     = 

OBJECT_NAME    = STARLINK-36181
OBJECT_ID      = 2026-041H
CENTER_NAME    = EARTH
REF_FRAME      = TEME
TIME_SYSTEM    = UTC
MEAN_ELEMENT_THEORY = SGP/SGP4

EPOCH          = 2026-03-10T12:00:01.999296
MEAN_MOTION    = 15.89978852
ECCENTRICITY   = .0000893
INCLINATION    = 53.1589
RA_OF_ASC_NODE = 58.1244
ARG_OF_PERICENTER = 68.8299
MEAN_ANOMALY   = 7.3790

EPHEMERIS_TYPE = 0
CLASSIFICATION_TYPE = U
NORAD_CAT_ID   = 68047
ELEMENT_SET_NO = 999
REV_AT_EPOCH   = 238
BSTAR          = -.52711E-2
MEAN_MOTION_DOT = -.1413105E-1
MEAN_MOTION_DDOT = 0

CCSDS_OMM_VERS = 2.0
CREATION_DATE  = 
ORIGINATOR     = 

OBJECT_NAME    = STARLINK-36318
OBJECT_ID      = 2026-041J
CENTER_NAME    = EARTH
REF_FRAME      = TEME
TIME_SYSTEM    = UTC
MEAN_ELEMENT_THEORY = SGP/SGP4

EPOCH          = 2026-03-10T10:00:01.999584
MEAN_MOTION    = 15.90480505
ECCENTRICITY   = .0000549
INCLINATION    = 53.1591
RA_OF_ASC_NODE = 58.5365
ARG_OF_PERICENTER = 63.6878
MEAN_ANOMALY   = 260.7730

EPHEMERIS_TYPE = 0
CLASSIFICATION_TYPE = U
NORAD_CAT_ID   = 68048
ELEMENT_SET_NO = 999
REV_AT_EPOCH   = 249
BSTAR          = -.49159E-2
MEAN_MOTION_DOT = -.1359715E-1
MEAN_MOTION_DDOT = 0

CCSDS_OMM_VERS = 2.0
CREATION_DATE  = 
ORIGINATOR     = 

OBJECT_NAME    = STARLINK-36885
OBJECT_ID      = 2026-041K
CENTER_NAME    = EARTH
REF_FRAME      = TEME
TIME_SYSTEM    = UTC
MEAN_ELEMENT_THEORY = SGP/SGP4

EPOCH          = 2026-03-10T10:00:01.999584
MEAN_MOTION    = 15.90751600
ECCENTRICITY   = .0000781
INCLINATION    = 53.1590
RA_OF_ASC_NODE = 58.5240
ARG_OF_PERICENTER = 69.3472
MEAN_ANOMALY   = 261.0772

EPHEMERIS_TYPE = 0
CLASSIFICATION_TYPE = U
NORAD_CAT_ID   = 68049
ELEMENT_SET_NO = 999
REV_AT_EPOCH   = 249
BSTAR          = -.49249E-2
MEAN_MOTION_DOT = -.1562663E-1
MEAN_MOTION_DDOT = .68142E-3

CCSDS_OMM_VERS = 2.0
CREATION_DATE  = 
ORIGINATOR     = 

OBJECT_NAME    = STARLINK-36945
OBJECT_ID      = 2026-041L
CENTER_NAME    = EARTH
REF_FRAME      = TEME
TIME_SYSTEM    = UTC
MEAN_ELEMENT_THEORY = SGP/SGP4

EPOCH          = 2026-03-10T10:00:01.999584
MEAN_MOTION    = 15.90613968
ECCENTRICITY   = .0000684
INCLINATION    = 53.1589
RA_OF_ASC_NODE = 58.5301
ARG_OF_PERICENTER = 63.6142
MEAN_ANOMALY   = 263.8683

EPHEMERIS_TYPE = 0
CLASSIFICATION_TYPE = U
NORAD_CAT_ID   = 68050
ELEMENT_SET_NO = 999
REV_AT_EPOCH   = 249
BSTAR          = -.4915E-2
MEAN_MOTION_DOT = -.1367846E-1
MEAN_MOTION_DDOT = 0

CCSDS_OMM_VERS = 2.0
CREATION_DATE  = 
ORIGINATOR     = 

OBJECT_NAME    = STARLINK-35911
OBJECT_ID      = 2026-041M
CENTER_NAME    = EARTH
REF_FRAME      = TEME
TIME_SYSTEM    = UTC
MEAN_ELEMENT_THEORY = SGP/SGP4

EPOCH          = 2026-03-10T10:00:01.999584
MEAN_MOTION    = 15.90870779
ECCENTRICITY   = .000056
INCLINATION    = 53.1590
RA_OF_ASC_NODE = 58.5179
ARG_OF_PERICENTER = 64.9715
MEAN_ANOMALY   = 268.5221

EPHEMERIS_TYPE = 0
CLASSIFICATION_TYPE = U
NORAD_CAT_ID   = 68051
ELEMENT_SET_NO = 999
REV_AT_EPOCH   = 245
BSTAR          = -.48518E-2
MEAN_MOTION_DOT = -.1549054E-1
MEAN_MOTION_DDOT = .67136E-3

CCSDS_OMM_VERS = 2.0
CREATION_DATE  = 
ORIGINATOR     = 

OBJECT_NAME    = STARLINK-35808
OBJECT_ID      = 2026-041N
CENTER_NAME    = EARTH
REF_FRAME      = TEME
TIME_SYSTEM    = UTC
MEAN_ELEMENT_THEORY = SGP/SGP4

EPOCH          = 2026-03-10T10:00:01.999584
MEAN_MOTION    = 15.91006906
ECCENTRICITY   = .00006
INCLINATION    = 53.1586
RA_OF_ASC_NODE = 58.5115
ARG_OF_PERICENTER = 72.7448
MEAN_ANOMALY   = 263.5374

EPHEMERIS_TYPE = 0
CLASSIFICATION_TYPE = U
NORAD_CAT_ID   = 68052
ELEMENT_SET_NO = 999
REV_AT_EPOCH   = 245
BSTAR          = -.48254E-2
MEAN_MOTION_DOT = -.1551373E-1
MEAN_MOTION_DDOT = .67408E-3

CCSDS_OMM_VERS = 2.0
CREATION_DATE  = 
ORIGINATOR     = 

OBJECT_NAME    = STARLINK-36919
OBJECT_ID      = 2026-041P
CENTER_NAME    = EARTH
REF_FRAME      = TEME
TIME_SYSTEM    = UTC
MEAN_ELEMENT_THEORY = SGP/SGP4

EPOCH          = 2026-03-10T10:00:01.999584
MEAN_MOTION    = 15.91134211
ECCENTRICITY   = .0000604
INCLINATION    = 53.1588
RA_OF_ASC_NODE = 58.5056
ARG_OF_PERICENTER = 69.9175
MEAN_ANOMALY   = 269.3320

EPHEMERIS_TYPE = 0
CLASSIFICATION_TYPE = U
NORAD_CAT_ID   = 68053
ELEMENT_SET_NO = 999
REV_AT_EPOCH   = 249
BSTAR          = -.47954E-2
MEAN_MOTION_DOT = -.1551834E-1
MEAN_MOTION_DDOT = .67527E-3

